ONEWEB-0068             
1 45446U 20020Y   26198.44315066 -.00005806  00000+0 -16423-1 0  9999
2 45446  87.8894  15.0405 0001793  92.2607 267.8727 13.11442214306562
ONEWEB-0046             
1 45447U 20020Z   26198.43480656 -.00000404  00000+0 -11762-2 0  9998
2 45447  87.8883  15.0458 0001629  84.6142 275.5172 13.11416721306571
ONEWEB-0063             
1 45448U 20020AA  26198.46378563  .00000126  00000+0  32091-3 0  9993
2 45448  87.8895  15.0418 0001896  81.8864 278.2479 13.11418496306668
ONEWEB-0019             
1 45449U 20020AB  26198.50250325 -.00000072  00000+0 -23888-3 0  9990
2 45449  87.8887  15.0184 0001992  96.2130 263.9225 13.11414981306512
ONEWEB-0094             
1 45450U 20020AC  26198.42554730  .00000048  00000+0  91430-4 0  9990
2 45450  87.9156 359.8364 0001829 100.5779 259.5559 13.17648938310298
ONEWEB-0087             
1 45451U 20020AD  26198.47368477  .00000516  00000+0  14189-2 0  9991
2 45451  87.8902  15.0164 0001591  96.4230 263.7080 13.11418052306553
ONEWEB-0082             
1 45452U 20020AE  26198.47029297  .00000358  00000+0  97452-3 0  9995
2 45452  87.8895  15.0312 0001354  89.4983 270.6300 13.11418403306646
ONEWEB-0050             
1 45453U 20020AF  26198.55690386  .00000687  00000+0  68218-4 0  9992
2 45453  88.9279 229.0850 0002584 168.1524 191.9767 14.90475850344901
ONEWEB-0034             
1 45454U 20020AG  26198.05010101 -.00000357  00000+0 -10425-2 0  9990
2 45454  87.8892  15.1239 0001799  89.8724 270.2610 13.11415180306508
ONEWEB-0060             
1 45455U 20020AH  26198.46280139  .00000050  00000+0  10612-3 0  9993
2 45455  87.8889  15.0374 0001309 123.0699 237.0555 13.11418608306511
ONEWEB-0086             
1 45456U 20020AJ  26198.44145621 -.00000531  00000+0 -15351-2 0  9998
2 45456  87.8893  15.0395 0001925 114.3466 245.7864 13.11417472306572
ONEWEB-0088             
1 45457U 20020AK  26198.49585319  .00000200  00000+0  52814-3 0  9993
2 45457  87.8902  15.0034 0001687  79.1998 280.9320 13.11415362306515
ONEWEB-0102             
1 47258U 20100A   26197.94270179  .00000323  00000+0  86329-3 0  9991
2 47258  87.8964 344.7575 0002084 104.1235 256.0125 13.12442616268631
ONEWEB-0109             
1 47259U 20100B   26198.63730320  .00000312  00000+0  83237-3 0  9991
2 47259  87.8976 344.6056 0002019  97.5854 262.5504 13.12443215268558
ONEWEB-0110             
1 47260U 20100C   26198.35946291 -.00000418  00000+0 -11980-2 0  9992
2 47260  87.8975 344.6449 0001839 105.5985 254.5347 13.12443244268681
ONEWEB-0111             
1 47261U 20100D   26198.38996038  .00000452  00000+0  12215-2 0  9998
2 47261  87.8974 344.6574 0001780  98.8223 261.3107 13.12444056268529
ONEWEB-0114             
1 47262U 20100E   26198.64915949 -.00000084  00000+0 -26960-3 0  9996
2 47262  87.8978 344.6045 0002067  95.3782 264.7582 13.12441858268518
ONEWEB-0117             
1 47263U 20100F   26198.64069287  .00000260  00000+0  68819-3 0  9995
2 47263  87.8973 344.5958 0001894  98.8717 261.2626 13.12441440268528
ONEWEB-0118             
1 47264U 20100G   26198.36962579 -.00000191  00000+0 -56707-3 0  9999
2 47264  87.8972 344.6526 0001970  86.9956 273.1398 13.12443391268680
ONEWEB-0119             
1 47265U 20100H   26198.39504595  .00000481  00000+0  13003-2 0  9994
2 47265  87.8963 344.6613 0001870  95.6643 264.4699 13.12442814268661
ONEWEB-0120             
1 47266U 20100J   26198.64760607  .00000024  00000+0  31668-4 0  9993
2 47266  87.8964 344.6123 0002074  96.8061 263.3303 13.12441485268723
ONEWEB-0121             
1 47267U 20100K   26197.94947487  .00000202  00000+0  52515-3 0  9990
2 47267  87.8974 344.7403 0001579 101.4669 258.6638 13.12441376268540
ONEWEB-0122             
1 47268U 20100L   26198.40097170  .00000471  00000+0  12740-2 0  9991
2 47268  87.8976 344.6554 0002040 101.4671 258.6687 13.12441402268517
ONEWEB-0123             
1 47269U 20100M   26197.93931179  .00000415  00000+0  11180-2 0  9990
2 47269  87.8962 344.7508 0001891  95.5280 264.6065 13.12442584268592
ONEWEB-0124             
1 47270U 20100N   26198.38656918  .00000335  00000+0  89450-3 0  9994
2 47270  87.8962 344.6646 0001767  97.6954 262.4376 13.12443869268531
ONEWEB-0125             
1 47271U 20100P   26198.36453538 -.00000332  00000+0 -95777-3 0  9994
2 47271  87.8974 344.6562 0001585  91.8366 268.2944 13.12443703268591
ONEWEB-0126             
1 47272U 20100Q   26198.38502481  .00000283  00000+0  75266-3 0  9993
2 47272  87.8967 344.6658 0001992  94.5169 265.6187 13.12443559268660
ONEWEB-0127             
1 47273U 20100R   26197.96979885 -.00000459  00000+0 -13126-2 0  9996
2 47273  87.8962 344.7458 0002014  96.1240 264.0118 13.12442111268636
ONEWEB-0128             
1 47274U 20100S   26198.37301080 -.00000096  00000+0 -30115-3 0  9994
2 47274  87.8962 344.6792 0001840 106.0524 254.0808 13.12444301268705
ONEWEB-0129             
1 47275U 20100T   26198.35268112 -.00000358  00000+0 -10304-2 0  9999
2 47275  87.8973 344.6599 0002967  91.0993 269.0476 13.12441986268632
